NORAD_CAT_ID,OBJECT_NAME,OBJECT_TYPE,EPOCH,MEAN_MOTION,ECCENTRICITY,INCLINATION,RA_OF_ASC_NODE,ARG_OF_PERICENTER,MEAN_ANOMALY,BSTAR,MEAN_MOTION_DOT,MEAN_MOTION_DDOT,TLE_LINE0,TLE_LINE1,TLE_LINE2,SEMIMAJOR_AXIS,PERIOD,APOGEE,PERIGEE,DECAYED
52125.0,STARLINK-3727,PAYLOAD,2023-04-13 10:59:01,15.08841536,0.000142,53.218,153.1783,84.968,275.1474,4.3426e-05,4.03e-06,0.0,0 STARLINK-3727,1 52125U 22029AP  23103.45765571  .00000403  00000-0  43426-4 0  9999,2 52125  53.2180 153.1783 0001420  84.9680 275.1474 15.08841536 60722,6917.876,95.437,540.723,538.758,0.0
52125.0,STARLINK-3727,PAYLOAD,2023-04-13 15:45:10,15.08847242,0.0001349,53.2175,152.2846,90.0302,270.0845,8.2512e-05,1.026e-05,0.0,0 STARLINK-3727,1 52125U 22029AP  23103.65637000  .00001026  00000-0  82512-4 0  9997,2 52125  53.2175 152.2846 0001349  90.0302 270.0845 15.08847242 60754,6917.858,95.437,540.656,538.79,0.0
52125.0,STARLINK-3727,PAYLOAD,2023-04-13 20:31:20,15.0883242,5.04e-05,53.2187,151.3938,97.4381,262.6669,-1.51e-05,-5.28e-06,0.0,0 STARLINK-3727,1 52125U 22029AP  23103.85509904 -.00000528  00000-0 -15100-4 0  9997,2 52125  53.2187 151.3938 0000504  97.4381 262.6669 15.08832420 60785,6917.904,95.438,540.117,539.42,0.0
52125.0,STARLINK-3727,PAYLOAD,2023-04-14 09:14:25,15.08838472,0.0001325,53.2174,149.0142,91.9854,268.129,7.764e-05,9.48e-06,0.0,0 STARLINK-3727,1 52125U 22029AP  23104.38501783  .00000948  00000-0  77640-4 0  9994,2 52125  53.2174 149.0142 0001325  91.9854 268.1290 15.08838472 60861,6917.885,95.438,540.667,538.833,0.0
52125.0,STARLINK-3727,PAYLOAD,2023-04-15 09:05:12,15.08840468,0.0001372,53.2167,144.5536,82.877,277.2378,3.2584e-05,2.31e-06,0.0,0 STARLINK-3727,1 52125U 22029AP  23105.37862033  .00000231  00000-0  32584-4 0  9995,2 52125  53.2167 144.5536 0001372  82.8770 277.2378 15.08840468 61012,6917.879,95.438,540.693,538.795,0.0
52125.0,STARLINK-3727,PAYLOAD,2023-04-16 02:34:27,15.08838371,0.0001377,53.2162,141.2825,86.242,273.8729,0.00011297,1.51e-05,0.0,0 STARLINK-3727,1 52125U 22029AP  23106.10725950  .00001510  00000-0  11297-3 0  9991,2 52125  53.2162 141.2825 0001377  86.2420 273.8729 15.08838371 61121,6917.885,95.438,540.703,538.798,0.0
52125.0,STARLINK-3727,PAYLOAD,2023-04-16 08:55:59,15.08843431,0.0001394,53.2164,140.0929,86.9242,273.1909,8.9196e-05,1.132e-05,0.0,0 STARLINK-3727,1 52125U 22029AP  23106.37221727  .00001132  00000-0  89196-4 0  9997,2 52125  53.2164 140.0929 0001394  86.9242 273.1909 15.08843431 61163,6917.87,95.437,540.699,538.771,0.0
52125.0,STARLINK-3727,PAYLOAD,2023-04-17 02:25:15,15.08811027,0.0001379,53.2175,136.8216,104.3476,255.7669,0.00038768,5.883e-05,0.0,0 STARLINK-3727,1 52125U 22029AP  23107.10087046  .00005883  00000-0  38768-3 0  9998,2 52125  53.2175 136.8216 0001379 104.3476 255.7669 15.08811027 61271,6917.969,95.439,540.788,538.88,0.0
52125.0,STARLINK-3727,PAYLOAD,2023-04-17 08:46:47,15.08833935,0.0001475,53.2174,135.6317,106.5915,253.5239,1.1692e-05,-1.02e-06,0.0,0 STARLINK-3727,1 52125U 22029AP  23107.36582636 -.00000102  00000-0  11692-4 0  9999,2 52125  53.2174 135.6317 0001475 106.5915 253.5239 15.08833935 61314,6917.899,95.438,540.784,538.744,0.0
52125.0,STARLINK-3727,PAYLOAD,2023-04-17 18:19:06,15.08835972,0.0001465,53.2175,133.8478,106.486,253.6293,1.8788e-05,1.1e-07,0.0,0 STARLINK-3727,1 52125U 22029AP  23107.76326594  .00000011  00000-0  18788-4 0  9993,2 52125  53.2175 133.8478 0001465 106.4860 253.6293 15.08835972 61370,6917.893,95.438,540.771,538.744,0.0
52125.0,STARLINK-3727,PAYLOAD,2023-04-18 07:02:10,15.08843035,0.0001284,53.2164,131.4678,104.203,255.9104,2.975e-05,1.86e-06,0.0,0 STARLINK-3727,1 52125U 22029AP  23108.29318172  .00000186  00000-0  29750-4 0  9999,2 52125  53.2164 131.4678 0001284 104.2030 255.9104 15.08843035 61452,6917.871,95.437,540.624,538.848,0.0
52125.0,STARLINK-3727,PAYLOAD,2023-04-18 18:09:52,15.08839145,0.0001208,53.2165,129.387,98.6428,261.4701,8.9798e-05,1.142e-05,0.0,0 STARLINK-3727,1 52125U 22029AP  23108.75686263  .00001142  00000-0  89798-4 0  9990,2 52125  53.2165 129.3870 0001208  98.6428 261.4701 15.08839145 61526,6917.883,95.438,540.584,538.912,0.0
52125.0,STARLINK-3727,PAYLOAD,2023-04-19 10:03:44,15.08833032,0.0001146,53.2166,126.4139,91.2834,268.8289,7.2604e-05,8.68e-06,0.0,0 STARLINK-3727,1 52125U 22029AP  23109.41927030  .00000868  00000-0  72604-4 0  9996,2 52125  53.2166 126.4139 0001146  91.2834 268.8289 15.08833032 61626,6917.902,95.438,540.559,538.974,0.0
52125.0,STARLINK-3727,PAYLOAD,2023-04-19 18:00:40,15.08834612,0.0001189,53.2169,124.9274,91.8713,268.2415,4.6401e-05,4.51e-06,0.0,0 STARLINK-3727,1 52125U 22029AP  23109.75047094  .00000451  00000-0  46401-4 0  9990,2 52125  53.2169 124.9274 0001189  91.8713 268.2415 15.08834612 61676,6917.897,95.438,540.584,538.939,0.0
52125.0,STARLINK-3727,PAYLOAD,2023-04-20 08:19:08,15.08839526,0.0001205,53.2168,122.2513,90.7821,269.3309,3.0055e-05,1.91e-06,0.0,0 STARLINK-3727,1 52125U 22029AP  23110.34662947  .00000191  00000-0  30055-4 0  9996,2 52125  53.2168 122.2513 0001205  90.7821 269.3309 15.08839526 61762,6917.882,95.438,540.58,538.913,0.0
52125.0,STARLINK-3727,PAYLOAD,2023-04-20 17:51:27,15.08837031,0.0001388,53.2174,120.4672,81.2833,278.8316,1.0165e-05,-1.26e-06,0.0,0 STARLINK-3727,1 52125U 22029AP  23110.74407301 -.00000126  00000-0  10165-4 0  9990,2 52125  53.2174 120.4672 0001388  81.2833 278.8316 15.08837031 61824,6917.889,95.438,540.715,538.794,0.0
52125.0,STARLINK-3727,PAYLOAD,2023-04-21 06:34:33,15.08831397,0.0001312,53.217,118.0876,82.6945,277.4197,5.1459e-05,5.31e-06,0.0,0 STARLINK-3727,1 52125U 22029AP  23111.27399700  .00000531  00000-0  51459-4 0  9992,2 52125  53.2170 118.0876 0001312  82.6945 277.4197 15.08831397 61905,6917.907,95.438,540.679,538.864,0.0
52125.0,STARLINK-3727,PAYLOAD,2023-04-21 17:42:14,15.08840389,0.0001298,53.2166,116.0073,79.5486,280.5652,7.9194e-05,9.73e-06,0.0,0 STARLINK-3727,1 52125U 22029AP  23111.73767159  .00000973  00000-0  79194-4 0  9996,2 52125  53.2166 116.0073 0001298  79.5486 280.5652 15.08840389 61974,6917.879,95.438,540.642,538.846,0.0
52125.0,STARLINK-3727,PAYLOAD,2023-04-22 11:11:28,15.08851097,0.0001387,53.2165,112.7359,86.4898,273.6253,0.00014353,1.998e-05,0.0,0 STARLINK-3727,1 52125U 22029AP  23112.46630083  .00001998  00000-0  14353-3 0  9995,2 52125  53.2165 112.7359 0001387  86.4898 273.6253 15.08851097 62087,6917.846,95.437,540.671,538.752,0.0
52125.0,STARLINK-3727,PAYLOAD,2023-04-22 17:33:01,15.08842393,0.0001598,53.2174,111.5503,63.4193,296.6963,7.3887e-05,8.88e-06,0.0,0 STARLINK-3727,1 52125U 22029AP  23112.73126890  .00000888  00000-0  73887-4 0  9996,2 52125  53.2174 111.5503 0001598  63.4193 296.6963 15.08842393 62129,6917.873,95.437,540.844,538.633,0.0
52125.0,STARLINK-3727,PAYLOAD,2023-04-23 11:02:16,15.08842539,0.0001436,53.2167,108.2787,57.9047,302.2084,-2.8119e-05,-7.35e-06,0.0,0 STARLINK-3727,1 52125U 22029AP  23113.45991176 -.00000735  00000-0 -28119-4 0  9994,2 52125  53.2167 108.2787 0001436  57.9047 302.2084 15.08842539 62237,6917.873,95.437,540.731,538.744,0.0
52125.0,STARLINK-3727,PAYLOAD,2023-04-24 09:17:39,15.08855924,0.0001278,53.2169,104.1116,88.4367,271.6771,2.3719e-05,9e-07,0.0,0 STARLINK-3727,1 52125U 22029AP  23114.38725762  .00000090  00000-0  23719-4 0  9996,2 52125  53.2169 104.1116 0001278  88.4367 271.6771 15.08855924 62377,6917.832,95.437,540.581,538.813,0.0
52125.0,STARLINK-3727,PAYLOAD,2023-04-25 02:46:54,15.08835456,0.0001288,53.2177,100.8389,101.8497,258.2639,1.3016e-05,-8.1e-07,0.0,0 STARLINK-3727,1 52125U 22029AP  23115.11590870 -.00000081  00000-0  13016-4 0  9998,2 52125  53.2177 100.8389 0001288 101.8497 258.2639 15.08835456 62480,6917.894,95.438,540.65,538.868,0.0
52125.0,STARLINK-3727,PAYLOAD,2023-04-25 10:43:50,15.08839504,0.0001193,53.2173,99.3544,86.848,273.2648,7.6592e-06,-1.66e-06,0.0,0 STARLINK-3727,1 52125U 22029AP  23115.44710721 -.00000166  00000-0  76592-5 0  9996,2 52125  53.2173  99.3544 0001193  86.8480 273.2648 15.08839504 62531,6917.882,95.438,540.572,538.922,0.0
52125.0,STARLINK-3727,PAYLOAD,2023-04-26 08:59:15,15.08822607,0.0001199,53.2179,95.1918,91.8468,268.2661,-1.0586e-05,-4.56e-06,0.0,0 STARLINK-3727,1 52125U 22029AP  23116.37448420 -.00000456  00000-0 -10586-4 0  9996,2 52125  53.2179  95.1918 0001199  91.8468 268.2661 15.08822607 62674,6917.934,95.439,540.628,538.969,0.0
52125.0,STARLINK-3727,PAYLOAD,2023-04-26 15:20:47,15.0882662,0.0001195,53.2177,94.0026,91.8351,268.2778,2.5182e-05,1.13e-06,0.0,0 STARLINK-3727,1 52125U 22029AP  23116.63944322  .00000113  00000-0  25182-4 0  9993,2 52125  53.2177  94.0026 0001195  91.8351 268.2778 15.08826620 62710,6917.921,95.438,540.613,538.96,0.0
52125.0,STARLINK-3727,PAYLOAD,2023-04-27 10:25:24,15.088424,0.0001145,53.218,90.4338,87.5896,272.5227,0.0001203,1.627e-05,0.0,0 STARLINK-3727,1 52125U 22029AP  23117.43431501  .00001627  00000-0  12030-3 0  9990,2 52125  53.2180  90.4338 0001145  87.5896 272.5227 15.08842400 62835,6917.873,95.437,540.53,538.946,0.0
52125.0,STARLINK-3727,PAYLOAD,2023-04-28 07:05:25,15.08847911,0.0001146,53.2177,86.5679,93.0018,267.1105,0.00023347,3.431e-05,0.0,0 STARLINK-3727,1 52125U 22029AP  23118.29543082  .00003431  00000-0  23347-3 0  9991,2 52125  53.2177  86.5679 0001146  93.0018 267.1105 15.08847911 62965,6917.856,95.437,540.514,538.928,0.0
52125.0,STARLINK-3727,PAYLOAD,2023-04-28 21:23:54,15.08837694,0.0001264,53.2169,83.8953,85.8067,274.3069,9.9455e-05,1.295e-05,0.0,0 STARLINK-3727,1 52125U 22029AP  23118.89160205  .00001295  00000-0  99455-4 0  9999,2 52125  53.2169  83.8953 0001264  85.8067 274.3069 15.08837694 63052,6917.887,95.438,540.627,538.878,0.0
52125.0,STARLINK-3727,PAYLOAD,2023-04-29 06:56:13,15.08839142,0.0001418,53.2176,82.1078,87.1813,272.9341,-4.2549e-05,-9.65e-06,0.0,0 STARLINK-3727,1 52125U 22029AP  23119.28904536 -.00000965  00000-0 -42549-4 0  9993,2 52125  53.2176  82.1078 0001418  87.1813 272.9341 15.08839142 63119,6917.883,95.438,540.729,538.767,0.0
